"19521 Chaos:Chaos:1998 WH24" "Sol"
{
	Class	"asteroid"
	Texture	"asteroid.*"
	Color	[ 1.000 0.909 0.810 ]
	BlendTexture	true
	Radius	300
	EllipticalOrbit
	{
		Epoch	2457000.5  # 2014 Dec 09
		Period	311.355238689112
		SemiMajorAxis	45.937284248341
		Eccentricity	0.107954342926
		Inclination	12.037508936202
		AscendingNode	49.989281303915
		ArgOfPericenter	57.52567525546
		MeanAnomaly	336.892338216847
	}
	UniformRotation
	{
		Period	95.64
	}
	LunarLambert	0.5
	Albedo	0.050
	InfoURL	"https://en.wikipedia.org/wiki/19521_Chaos"
}

# Fernández-Valenzuela et al. (2019), ApJL 883 (1), L21
# "The Changing Rotational Light-curve Amplitude of Varuna and Evidence for a Close-in Satellite"
# https://iopscience.iop.org/article/10.3847/2041-8213/ab40c2
"20000 Varuna:Varuna:2000 WR106" "Sol"
{
	Class	"asteroid"
	Texture	"asteroid.*"
	Color	[ 1.000 0.902 0.813 ]
	BlendTexture	true
	Radius	502  # long-axis from occultation
	SemiAxes	[ 1 0.6 0.432 ]  # hydrostatic equilibrium assumed
	EllipticalOrbit
	{
		Epoch	2458600.5  # 2019 Apr 27
		Period	279.826385408313
		SemiMajorAxis	42.781266787405
		Eccentricity	0.054126386935
		Inclination	17.219680092474
		AscendingNode	97.369341977692
		ArgOfPericenter	262.875078141022
		MeanAnomaly	117.223797711347
	}
	UniformRotation
	{
		Period	6.343572
		Inclination	154
		AscendingNode	143
	}
	LunarLambert	0.5
	Albedo	0.127
	InfoURL	"https://en.wikipedia.org/wiki/20000_Varuna"
}

"28978 Ixion:Ixion:2001 KX76" "Sol"
{
	Class	"asteroid"
	Texture	"asteroid.*"
	Color	[ 1.000 0.910 0.782 ]
	BlendTexture	true
	Radius	308.5
	EllipticalOrbit
	{
		Epoch	2458200.5  # 2018 Mar 23
		Period	250.267192068746
		SemiMajorAxis	39.712797304978
		Eccentricity	0.242215549692
		Inclination	19.580788128563
		AscendingNode	70.991108341519
		ArgOfPericenter	298.578486340711
		MeanAnomaly	284.989387403958
	}
	UniformRotation
	{
		Period	12.4
	}
	LunarLambert	0.5
	Albedo	0.141
	InfoURL	"https://en.wikipedia.org/wiki/28978_Ixion"
}

ReferencePoint "Huya System" "Sol"
{
	EllipticalOrbit
	{
		Epoch	2458600.5  # 2019 Apr 27
		Period	251.421969003257
		SemiMajorAxis	39.834864782384
		Eccentricity	0.283442833541
		Inclination	15.470167417658
		AscendingNode	169.327766003688
		ArgOfPericenter	68.273717081769
		MeanAnomaly	5.794887299879
	}
	# Make the orbit and label visible
	Visible true
	Clickable true
}

"38628 Huya:Huya:2000 EB173" "Sol"
{
	Class	"asteroid"
	Texture	"asteroid.*"
	Color	[ 1.000 0.909 0.799 ]
	BlendTexture	true
	Radius	203
	OrbitFrame
	{
		EclipticJ2000	{ Center "Sol/Huya System" }
	}
	EllipticalOrbit
	{
		Period	3.2
		SemiMajorAxis	220
		ArgOfPericenter	180
	}
	UniformRotation
	{
		Period	5.28
	}
	LunarLambert	0.5
	Albedo	0.083
	InfoURL	"https://en.wikipedia.org/wiki/38628_Huya"
}

"S-2012 (38628) 1" "Sol/Huya"
{
	Class	"moon"
	Mesh	"roughsphere.cms"
	Texture	"asteroid.*"
	Color	[ 1.000 0.909 0.799 ]  # assume same color as primary
	BlendTexture	true
	Radius	106.5
	OrbitFrame
	{
		EclipticJ2000	{ Center "Sol/Huya System" }
	}
	EllipticalOrbit
	{
		Period	3.2
		SemiMajorAxis	1520
	}
	LunarLambert	0.5
	Albedo	0.083
	InfoURL	"https://en.wikipedia.org/wiki/38628_Huya#Satellite"
}

"(55565) 2002 AW197:2002 AW197" "Sol"
{
	Class	"asteroid"
	Texture	"asteroid.*"
	Color	[ 1.000 0.916 0.822 ]
	BlendTexture	true
	Radius	384
	EllipticalOrbit
	{
		Epoch	2457000.5  # 2014 Dec 09
		Period	327.45458650153
		SemiMajorAxis	47.50747155598051
		Eccentricity	0.1299130054972144
		Inclination	24.33298092458305
		AscendingNode	297.4107993216403
		ArgOfPericenter	293.228355614586
		MeanAnomaly	292.6022119780332
	}
	UniformRotation
	{
		Period	8.86
	}
	LunarLambert	0.5
	Albedo	0.112
	InfoURL	"https://en.wikipedia.org/wiki/(55565)_2002_AW197"
}

# Sizes from Grundy et al. (2019), Icarus 334, 62
# "Mutual orbit orientations of transneptunian binaries"
"120347 Salacia:Salacia:2004 SB60" "Sol"
{
	Class	"asteroid"
	Texture	"asteroid.*"
	Color	[ 1.000 0.990 0.988 ]
	BlendTexture	true
	Radius	423
	EllipticalOrbit
	{
		Epoch	2458600.5  # 2019 Apr 27
		Period	272.746950367937
		SemiMajorAxis	42.056629776848
		Eccentricity	0.108461545461
		Inclination	23.921526737521
		AscendingNode	279.893292403391
		ArgOfPericenter	310.976065097087
		MeanAnomaly	122.990298098042
	}
	UniformRotation  # assume coplanarity with satellite orbit
	{
		Period	6.5
		Inclination	18.0
		AscendingNode	110.4
	}
	LunarLambert	0.5
	Albedo	0.044
	InfoURL	"https://en.wikipedia.org/wiki/120347_Salacia"
}

"Actaea:120347 Salacia I:Salacia I:S-2006 (120347) 1" "Sol/Salacia"
{
	Class	"moon"
	Mesh	"roughsphere.cms"
	Texture	"asteroid.*"
	Color	[ 1.000 0.990 0.988 ]  # assume same color as primary
	BlendTexture	true
	Radius	142
	OrbitFrame
	{
		EquatorJ2000	{ Center "Sol/Salacia" }
	}
	EllipticalOrbit
	{
		Epoch	2454300.0  # 2007 Jul 18 12:00
		Period	5.4938
		SemiMajorAxis	5709
		Eccentricity	0.005
		Inclination	23.7
		AscendingNode	46.1
		ArgOfPericenter	43.2
		MeanAnomaly	214.5
	}
	LunarLambert	0.5
	Albedo	0.044
	InfoURL	"https://en.wikipedia.org/wiki/Actaea_(moon)"
}

# Souami et al. (2020), eprint arXiv:2008.04818
# "A multi-chord stellar occultation by the large trans-Neptunian object (174567) Varda"
# https://arxiv.org/abs/2008.04818
ReferencePoint "Varda-Ilmare" "Sol"
{
	EllipticalOrbit
	{
		Epoch	2458600.5  # 2019 Apr 27
		Period	313.172905368821
		SemiMajorAxis	46.115896173605
		Eccentricity	0.141526560086
		Inclination	21.504104172455
		AscendingNode	184.054354566194
		ArgOfPericenter	180.060322195174
		MeanAnomaly	273.863817291683
	}
	# Make the orbit and label visible
	Visible true
	Clickable true
}

"174567 Varda:Varda:2003 MW12" "Sol"
{
	Class	"asteroid"
	Texture	"asteroid.*"
	Color	[ 1.000 0.929 0.842 ]
	BlendTexture	true
	Radius	381  # equatorial
	Oblateness	0.043
	OrbitFrame
	{
		EquatorJ2000	{ Center "Sol/Varda-Ilmare" }
	}
	EllipticalOrbit
	{
		Epoch	2455300.0  # 2010 Apr 13 12:00
		Period	5.7503
		SemiMajorAxis	474
		Eccentricity	0.021
		Inclination	103.8
		AscendingNode	5.2
		ArgOfPericenter	106.1
		MeanAnomaly	167.3
	}
	UniformRotation  # to match mutual orbit
	{
		Period	5.91
		Inclination	80.5
		AscendingNode	5.1
	}
	LunarLambert	0.5
	Albedo	0.097
	InfoURL	"https://en.wikipedia.org/wiki/174567_Varda"
}

"Ilmare:174567 Varda I:Varda I:S-2006 (174567) 1" "Sol/Varda"
{
	Class	"moon"
	Mesh	"roughsphere.cms"
	Texture	"asteroid.*"
	Color	[ 0.941 0.875 0.793 ]  # assume same color as primary; adjusted for albedo
	BlendTexture	true
	Radius	178
	OrbitFrame
	{
		EquatorJ2000	{ Center "Sol/Varda-Ilmare" }
	}
	EllipticalOrbit
	{
		Epoch	2455300.0  # 2010 Apr 13 12:00
		Period	5.7503
		SemiMajorAxis	4363
		Eccentricity	0.021
		Inclination	103.8
		AscendingNode	5.2
		ArgOfPericenter	286.1
		MeanAnomaly	167.3
	}
	LunarLambert	0.5
	Albedo	0.085
	InfoURL	"https://en.wikipedia.org/wiki/Ilmar%C3%AB_(moon)"
}

# Size from Ortiz et al. (2019), eprint arXiv:1905.04335
# "Stellar Occultations by Transneptunian objects: from Predictions to Observations
# and Prospects for the Future"
# https://arxiv.org/abs/1905.04335
# Secondary size calculated from radius ratio in Grundy et al. (2019), Icarus 334, 30
"229762 G!kun||'homdima:G!kun||'homdima:2007 UK126" "Sol"
{
	Class	"asteroid"
	Texture	"asteroid.*"
	SemiAxes	[ 339 339 305.7 ]
	EllipticalOrbit
	{
		Epoch	2458600.5  # 2019 Apr 27
		Period	620.170586943397
		SemiMajorAxis	72.722473453493
		Eccentricity	0.484308985566
		Inclination	23.377937957267
		AscendingNode	131.094164373881
		ArgOfPericenter	346.87585252865
		MeanAnomaly	344.208559857227
	}
	UniformRotation
	{
		Period	11.05
	}
	LunarLambert	0.5
	Albedo	0.142
	InfoURL	"https://en.wikipedia.org/wiki/229762_G%C7%83k%C3%BAn%C7%81%CA%BCh%C3%B2md%C3%ADm%C3%A0"
}

